CANX-5                  
1 40056U 14034D   26068.71056464  .00001421  00000+0  19034-3 0  9999
2 40056  98.3278 300.3368 0012317 336.6034  23.4615 14.81078391620614
KUIPER-00103            
1 65141U 25171K   26068.49508317  .00004794  00000+0  65731-3 0  9990
2 65141  51.8976 171.4297 0001486 136.3523 223.7557 14.79944100 32687
